$$SOE
2459580.500000000, A.D. 2022-Jan-01 00:00:00.0000, 3.291516212779885E+08, -1.801820988076033E+08, 5.469998656202131E+07,
2459587.500000000, A.D. 2022-Jan-08 00:00:00.0000, 3.338910815866740E+08, -1.697023227894434E+08, 5.395906056585038E+07,
2459594.500000000, A.D. 2022-Jan-15 00:00:00.0000, 3.383316622574694E+08, -1.590706026098737E+08, 5.316974239547337E+07,
2459601.500000000, A.D. 2022-Jan-22 00:00:00.0000, 3.424674924689535E+08, -1.482955744079866E+08, 5.233244055473164E+07,
2459608.500000000, A.D. 2022-Jan-29 00:00:00.0000, 3.462929420344584E+08, -1.373861271032135E+08, 5.144761831484906E+07,
2459615.500000000, A.D. 2022-Feb-05 00:00:00.0000, 3.498026324738106E+08, -1.263513970258859E+08, 5.051579452175738E+07,
2459622.500000000, A.D. 2022-Feb-12 00:00:00.0000, 3.529914502331165E+08, -1.152007628507621E+08, 4.953754402329758E+07,
2459629.500000000, A.D. 2022-Feb-19 00:00:00.0000, 3.558545606799443E+08, -1.039438384480576E+08, 4.851349802433334E+07,
2459636.500000000, A.D. 2022-Feb-26 00:00:00.0000, 3.583874215132940E+08, -9.259046436328284E+07, 4.744434442452537E+07,
2459643.500000000, A.D. 2022-Mar-05 00:00:00.0000, 3.605857956955028E+08, -8.115069853482489E+07, 4.633082806729083E+07,
2459650.500000000, A.D. 2022-Mar-12 00:00:00.0000, 3.624457640733839E+08, -6.963480631045930E+07, 4.517375086790942E+07,
2459657.500000000, A.D. 2022-Mar-19 00:00:00.0000, 3.639637377034132E+08, -5.805324973396135E+07, 4.397397181057978E+07,
2459664.500000000, A.D. 2022-Mar-26 00:00:00.0000, 3.651364698459324E+08, -4.641667611116107E+07, 4.273240680641991E+07,
2459671.500000000, A.D. 2022-Apr-02 00:00:00.0000, 3.659610676376855E+08, -3.473590591959774E+07, 4.145002839661975E+07,
2459678.500000000, A.D. 2022-Apr-09 00:00:00.0000, 3.664350036539981E+08, -2.302192007043906E+07, 4.012786527116874E+07,
2459685.500000000, A.D. 2022-Apr-16 00:00:00.0000, 3.665561276540378E+08, -1.128584588492893E+07, 3.876700161879568E+07,
2459692.500000000, A.D. 2022-Apr-23 00:00:00.0000, 3.663226771799499E+08, 4.610592808105480E+05, 3.736857651012036E+07,
2459699.500000000, A.D. 2022-Apr-30 00:00:00.0000, 3.657332850859379E+08, 1.220742449069249E+07, 3.593378330118828E+07,
2459706.500000000, A.D. 2022-May-07 00:00:00.0000, 3.647869870022008E+08, 2.394177975461321E+07, 3.446386861300803E+07,
2459713.500000000, A.D. 2022-May-14 00:00:00.0000, 3.634832300622139E+08, 3.565257162726244E+07, 3.296013100563437E+07,
2459720.500000000, A.D. 2022-May-21 00:00:00.0000, 3.618218808065920E+08, 4.732818059893395E+07, 3.142391959475078E+07,
2459727.500000000, A.D. 2022-May-28 00:00:00.0000, 3.598032317336459E+08, 5.895693927418667E+07, 2.985663257720818E+07,
2459734.500000000, A.D. 2022-Jun-04 00:00:00.0000, 3.574280067258584E+08, 7.052715097483546E+07, 2.825971561616163E+07,
2459741.500000000, A.D. 2022-Jun-11 00:00:00.0000, 3.546973654525421E+08, 8.202710871364245E+07, 2.663466007503140E+07,
2459748.500000000, A.D. 2022-Jun-18 00:00:00.0000, 3.516129067464164E+08, 9.344511449078973E+07, 2.498300110068071E+07,
2459755.500000000, A.D. 2022-Jun-25 00:00:00.0000, 3.481766709453269E+08, 1.047694988135503E+08, 2.330631555356249E+07,
2459762.500000000, A.D. 2022-Jul-02 00:00:00.0000, 3.443911412972031E+08, 1.159886403030660E+08, 2.160621977064431E+07,
2459769.500000000, A.D. 2022-Jul-09 00:00:00.0000, 3.402592447851512E+08, 1.270909854923755E+08, 1.988436714385338E+07,
2459776.500000000, A.D. 2022-Jul-16 00:00:00.0000, 3.357843522863876E+08, 1.380650698256820E+08, 1.814244561297105E+07,
2459783.500000000, A.D. 2022-Jul-23 00:00:00.0000, 3.309702758456045E+08, 1.488995398691829E+08, 1.638217528976402E+07,
2459790.500000000, A.D. 2022-Jul-30 00:00:00.0000, 3.258212631472496E+08, 1.595831733101891E+08, 1.460530594296077E+07,
2459797.500000000, A.D. 2022-Aug-06 00:00:00.0000, 3.203419927911092E+08, 1.701048973112377E+08, 1.281361407671222E+07,
2459804.500000000, A.D. 2022-Aug-13 00:00:00.0000, 3.145375695503207E+08, 1.804538078899252E+08, 1.100889991224513E+07,
2459811.500000000, A.D. 2022-Aug-20 00:00:00.0000, 3.084135180503756E+08, 1.906191897398383E+08, 9.192984385512620E+06,
2459818.500000000, A.D. 2022-Aug-27 00:00:00.0000, 3.019757749520479E+08, 2.005905356859666E+08, 7.367706105806336E+06,
2459825.500000000, A.D. 2022-Sep-03 00:00:00.0000, 2.952306799070538E+08, 2.103575655855625E+08, 5.534918254658908E+06,
2459832.500000000, A.D. 2022-Sep-10 00:00:00.0000, 2.881849654037826E+08, 2.199102446220803E+08, 3.696485430362627E+06,
2459839.500000000, A.D. 2022-Sep-17 00:00:00.0000, 2.808457455662425E+08, 2.292388009169023E+08, 1.854280447313830E+06,
2459846.500000000, A.D. 2022-Sep-24 00:00:00.0000, 2.732205040068189E+08, 2.383337423378268E+08, 1.018109282580018E+04,
2459853.500000000, A.D. 2022-Oct-01 00:00:00.0000, 2.653170810197508E+08, 2.471858724160911E+08, -1.833933169984877E+06,
2459860.500000000, A.D. 2022-Oct-08 00:00:00.0000, 2.571436605767100E+08, 2.557863058313111E+08, -3.676184535803422E+06,
2459867.500000000, A.D. 2022-Oct-15 00:00:00.0000, 2.487087562490045E+08, 2.641264846006862E+08, -5.514700031954452E+06,
2459874.500000000, A.D. 2022-Oct-22 00:00:00.0000, 2.400211939300635E+08, 2.721981932336265E+08, -7.347614459211335E+06,
2459881.500000000, A.D. 2022-Oct-29 00:00:00.0000, 2.310900939245578E+08, 2.799935702169896E+08, -9.173073527149886E+06,
2459888.500000000, A.D. 2022-Nov-05 00:00:00.0000, 2.219248545788629E+08, 2.875051185281566E+08, -1.098923714175382E+07,
2459895.500000000, A.D. 2022-Nov-12 00:00:00.0000, 2.125351355583698E+08, 2.947257164006625E+08, -1.279428255033657E+07,
2459902.500000000, A.D. 2022-Nov-19 00:00:00.0000, 2.029308401238562E+08, 3.016486273546366E+08, -1.458640734436092E+07,
2459909.500000000, A.D. 2022-Nov-26 00:00:00.0000, 1.931220967430052E+08, 3.082675090685019E+08, -1.636383236563019E+07,
2459916.500000000, A.D. 2022-Dec-03 00:00:00.0000, 1.831192402776617E+08, 3.145764210616090E+08, -1.812480452147341E+07,
2459923.500000000, A.D. 2022-Dec-10 00:00:00.0000, 1.729327928676806E+08, 3.205698311959084E+08, -1.986759950176311E+07,
2459930.500000000, A.D. 2022-Dec-17 00:00:00.0000, 1.625734446126575E+08, 3.262426209690596E+08, -2.159052439326993E+07,
2459937.500000000, A.D. 2022-Dec-24 00:00:00.0000, 1.520520342385229E+08, 3.315900895374644E+08, -2.329192019909327E+07,
2459944.500000000, A.D. 2022-Dec-31 00:00:00.0000, 1.413795301844559E+08, 3.366079565873542E+08, -2.497016428068373E+07,
2459951.500000000, A.D. 2023-Jan-07 00:00:00.0000, 1.305670123110237E+08, 3.412923650322326E+08, -2.662367264994788E+07,
2459958.500000000, A.D. 2023-Jan-14 00:00:00.0000, 1.196256523385779E+08, 3.456398840484289E+08, -2.825090188575208E+07,
2459965.500000000, A.D. 2023-Jan-21 00:00:00.0000, 1.085666924365890E+08, 3.496475092934619E+08, -2.985035086926408E+07,
2459972.500000000, A.D. 2023-Jan-28 00:00:00.0000, 9.740142569585848E+07, 3.533126601459198E+08, -3.142056268713260E+07,
2459979.500000000, A.D. 2023-Feb-04 00:00:00.0000, 8.614117834234233E+07, 3.566331770305116E+08, -3.296012643460585E+07,
2459986.500000000, A.D. 2023-Feb-11 00:00:00.0000, 7.479729195658483E+07, 3.596073186684930E+08, -3.446767876779331E+07,
2459993.500000000, A.D. 2023-Feb-18 00:00:00.0000, 6.338110568877552E+07, 3.622337584704198E+08, -3.594190526528947E+07,
2460000.500000000, A.D. 2023-Feb-25 00:00:00.0000, 5.190393878239200E+07, 3.645115799548902E+08, -3.738154163650681E+07,
2460007.500000000, A.D. 2023-Mar-04 00:00:00.0000, 4.037707355552730E+07, 3.664402712606738E+08, -3.878537478563778E+07,
2460014.500000000, A.D. 2023-Mar-11 00:00:00.0000, 2.881173891205852E+07, 3.680197188029515E+08, -4.015224373567614E+07,
2460021.500000000, A.D. 2023-Mar-18 00:00:00.0000, 1.721909446957047E+07, 3.692502000742802E+08, -4.148104042299031E+07,
2460028.500000000, A.D. 2023-Mar-25 00:00:00.0000, 5.610215542032610E+06, 3.701323755917438E+08, -4.277071038676777E+07,
2460035.500000000, A.D. 2023-Apr-01 00:00:00.0000, -6.003920571049727E+06, 3.706672804323568E+08, -4.402025336166742E+07,
2460042.500000000, A.D. 2023-Apr-08 00:00:00.0000, -1.761244758423157E+07, 3.708563166345508E+08, -4.522872361978005E+07,
2460049.500000000, A.D. 2023-Apr-15 00:00:00.0000, -2.920462483402747E+07, 3.707012454139681E+08, -4.639522994174142E+07,
2460056.500000000, A.D. 2023-Apr-22 00:00:00.0000, -4.076985167514462E+07, 3.702041761939950E+08, -4.751893563592745E+07,
2460063.500000000, A.D. 2023-Apr-29 00:00:00.0000, -5.229767892409042E+07, 3.693675547657642E+08, -4.859905867955154E+07,
2460070.500000000, A.D. 2023-May-06 00:00:00.0000, -6.377781909986232E+07, 3.681941524196430E+08, -4.963487168321744E+07,
2460077.500000000, A.D. 2023-May-13 00:00:00.0000, -7.520015643149251E+07, 3.666870552051384E+08, -5.062570166855624E+07,
2460084.500000000, A.D. 2023-May-20 00:00:00.0000, -8.655475639826658E+07, 3.648496528755004E+08, -5.157092972611059E+07,
2460091.500000000, A.D. 2023-May-27 00:00:00.0000, -9.783187461368376E+07, 3.626856275342730E+08, -5.246999057949249E+07,
2460098.500000000, A.D. 2023-Jun-03 00:00:00.0000, -1.090219650035518E+08, 3.601989420552388E+08, -5.332237206511715E+07,
2460105.500000000, A.D. 2023-Jun-10 00:00:00.0000, -1.201156872653272E+08, 3.573938283057914E+08, -5.412761453712444E+07,
2460112.500000000, A.D. 2023-Jun-17 00:00:00.0000, -1.311039135331189E+08, 3.542747751554206E+08, -5.488531021691807E+07,
2460119.500000000, A.D. 2023-Jun-24 00:00:00.0000, -1.419777339442792E+08, 3.508465163644391E+08, -5.559510251843515E+07,
2460126.500000000, A.D. 2023-Jul-01 00:00:00.0000, -1.527284608731653E+08, 3.471140192187402E+08, -5.625668531113805E+07,
2460133.500000000, A.D. 2023-Jul-08 00:00:00.0000, -1.633476335267936E+08, 3.430824747701973E+08, -5.686980190720563E+07,
2460140.500000000, A.D. 2023-Jul-15 00:00:00.0000, -1.738270241975159E+08, 3.387572868870606E+08, -5.743424389353243E+07,
2460147.500000000, A.D. 2023-Jul-22 00:00:00.0000, -1.841586426714412E+08, 3.341440591048741E+08, -5.794985021981503E+07,
$$EOE